[{"OBJECT_NAME":"SDA_1669","OBJECT_ID":"2025-230F","EPOCH":"2026-03-09T23:15:29.145312","MEAN_MOTION":13.85259499,"ECCENTRICITY":0.00048218,"INCLINATION":81.3002,"RA_OF_ASC_NODE":303.6388,"ARG_OF_PERICENTER":103.9978,"MEAN_ANOMALY":256.1716,"EPHEMERIS_TYPE":0,"CLASSIFICATION_TYPE":"U","NORAD_CAT_ID":65979,"ELEMENT_SET_NO":999,"REV_AT_EPOCH":2008,"BSTAR":0.00013412662,"MEAN_MOTION_DOT":1.64e-6,"MEAN_MOTION_DDOT":0},{"OBJECT_NAME":"COSMOS 1275 DEB","OBJECT_ID":"1981-053RG","EPOCH":"2026-03-05T08:04:22.977120","MEAN_MOTION":13.88949617,"ECCENTRICITY":0.0062166,"INCLINATION":82.8067,"RA_OF_ASC_NODE":24.6581,"ARG_OF_PERICENTER":13.0334,"MEAN_ANOMALY":138.429,"EPHEMERIS_TYPE":0,"CLASSIFICATION_TYPE":"U","NORAD_CAT_ID":42144,"ELEMENT_SET_NO":999,"REV_AT_EPOCH":62117,"BSTAR":0.0017331,"MEAN_MOTION_DOT":2.145e-5,"MEAN_MOTION_DDOT":0}]
